{
    "links": {
        "self": "http://www.neowsapp.com/rest/v1/neo/3555766?api_key=iIulBulltgU6a56xZRHN4H3l9WmuAYTsLGpBGhQ2"
    },
    "id": "3555766",
    "neo_reference_id": "3555766",
    "name": "(2011 BB19)",
    "designation": "2011 BB19",
    "nasa_jpl_url": "http://ssd.jpl.nasa.gov/sbdb.cgi?sstr=3555766",
    "absolute_magnitude_h": 21.7,
    "estimated_diameter": {
        "kilometers": {
            "estimated_diameter_min": 0.1214940408,
            "estimated_diameter_max": 0.2716689341
        },
        "meters": {
            "estimated_diameter_min": 121.4940407996,
            "estimated_diameter_max": 271.6689340891
        },
        "miles": {
            "estimated_diameter_min": 0.0754928736,
            "estimated_diameter_max": 0.1688071972
        },
        "feet": {
            "estimated_diameter_min": 398.6025088171,
            "estimated_diameter_max": 891.3023057169
        }
    },
    "is_potentially_hazardous_asteroid": false,
    "close_approach_data": [
        {
            "close_approach_date": "1989-01-15",
            "close_approach_date_full": "1989-Jan-15 10:53",
            "epoch_date_close_approach": 600864780000,
            "relative_velocity": {
                "kilometers_per_second": "11.8358508213",
                "kilometers_per_hour": "42609.0629565162",
                "miles_per_hour": "26475.6147020642"
            },
            "miss_distance": {
                "astronomical": "0.1298535903",
                "lunar": "50.5130466267",
                "kilometers": "19425820.520732661",
                "miles": "12070645.1483302818"
            },
            "orbiting_body": "Earth"
        },
        {
            "close_approach_date": "2011-01-13",
            "close_approach_date_full": "2011-Jan-13 10:34",
            "epoch_date_close_approach": 1294914840000,
            "relative_velocity": {
                "kilometers_per_second": "11.6054700199",
                "kilometers_per_hour": "41779.6920715374",
                "miles_per_hour": "25960.2758874506"
            },
            "miss_distance": {
                "astronomical": "0.1852201488",
                "lunar": "72.0506378832",
                "kilometers": "27708539.741563056",
                "miles": "17217288.2191439328"
            },
            "orbiting_body": "Earth"
        },
        {
            "close_approach_date": "2033-01-10",
            "close_approach_date_full": "2033-Jan-10 04:50",
            "epoch_date_close_approach": 1988945400000,
            "relative_velocity": {
                "kilometers_per_second": "12.1412213148",
                "kilometers_per_hour": "43708.3967332037",
                "miles_per_hour": "27158.6979590287"
            },
            "miss_distance": {
                "astronomical": "0.2898561856",
                "lunar": "112.7540561984",
                "kilometers": "43361867.972084672",
                "miles": "26943815.3565335936"
            },
            "orbiting_body": "Earth"
        }
    ],
    "orbital_data": {
        "orbit_id": "10",
        "orbit_determination_date": "2017-04-06 08:54:49",
        "first_observation_date": "2011-01-27",
        "last_observation_date": "2011-03-01",
        "data_arc_in_days": 33,
        "observations_used": 39,
        "orbit_uncertainty": "7",
        "minimum_orbit_intersection": ".125448",
        "jupiter_tisserand_invariant": "3.883",
        "epoch_osculation": "2459000.5",
        "eccentricity": ".3987426641570768",
        "semi_major_axis": "1.813119093856429",
        "inclination": "20.57493514517306",
        "ascending_node_longitude": "120.7871185558259",
        "orbital_period": "891.7393351581496",
        "perihelion_distance": "1.090151155938051",
        "perihelion_argument": "337.357698698831",
        "aphelion_distance": "2.536087031774807",
        "perihelion_time": "2459121.929736678433",
        "mean_anomaly": "310.9781575391836",
        "mean_motion": ".4037054168258196",
        "equinox": "J2000",
        "orbit_class": {
            "orbit_class_type": "AMO",
            "orbit_class_description": "Near-Earth asteroid orbits similar to that of 1221 Amor",
            "orbit_class_range": "1.017 AU < q (perihelion) < 1.3 AU"
        }
    },
    "is_sentry_object": false
}